GLOBALSTAR M035         
1 25851U 99037A   25108.49128376  .00000005  00000+0  26041-2 0  9994
2 25851  51.9932 188.0942 0013957 242.9182 209.5322 11.04537761 89675
GLOBALSTAR M032         
1 25852U 99037B   25109.73579972 -.00000115  00000+0 -15478-2 0  9991
2 25852  52.0001  14.5456 0012579  69.1191 291.0954 11.19062542128303
GLOBALSTAR M051         
1 25853U 99037C   25108.63360586 -.00000081  00000+0 -23194-3 0  9996
2 25853  51.9778 184.5589 0001117 128.1840 231.9072 11.42204714125600
GLOBALSTAR M030         
1 25854U 99037D   25108.80788140 -.00000025  00000+0  10645-2 0  9999
2 25854  51.9918 354.0203 0003139 312.8291  47.2262 11.55104988143281
GLOBALSTAR M048         
1 25872U 99041A   25107.30137353 -.00000078  00000+0 -21549-3 0  9997
2 25872  51.9334 120.4507 0013071  79.8312  37.5667 11.33856244118070
GLOBALSTAR M026         
1 25873U 99041B   25107.82999470  .00000075  00000+0  51405-2 0  9999
2 25873  52.0027 308.1662 0002126 143.3166 310.6162 11.06836490141805
GLOBALSTAR M043         
1 25874U 99041C   25108.51180440 -.00000086  00000+0 -52943-3 0  9999
2 25874  51.9392 222.8453 0013805 208.1998 234.0296 11.25691977116188
GLOBALSTAR M028         
1 25875U 99041D   25108.84912918 -.00000068  00000+0  20920-3 0  9998
2 25875  51.9658  10.0004 0062873 303.1584  56.3256 12.50581121182787
